{
  "type": "FeatureCollection",
  "features": [
    {
      "type": "Feature",
      "properties": {
        "norad_id": 66052,
        "name": "HRC MONOBLOCK CAMERA",
        "group": "stations",
        "lat": -49.82708996447671,
        "lon": 103.30411841776964,
        "alt_km": 412.5785044464519,
        "timestamp": "2025-12-06T09:34:15.718707+00:00",
        "meta_object_name": "HRC MONOBLOCK CAMERA",
        "meta_object_id": "1998-067XR",
        "meta_epoch": "2025-12-05T21:33:04.932864",
        "meta_mean_motion": 15.5347422,
        "meta_eccentricity": 0.00041965,
        "meta_inclination": 51.6285,
        "meta_ra_of_asc_node": 175.6042,
        "meta_arg_of_pericenter": 157.7899,
        "meta_mean_anomaly": 202.3273,
        "meta_ephemeris_type": 0,
        "meta_classification_type": "U",
        "meta_norad_cat_id": 66052,
        "meta_element_set_no": 999,
        "meta_rev_at_epoch": 777,
        "meta_bstar": 0.00068980768,
        "meta_mean_motion_dot": 0.00044373,
        "meta_mean_motion_ddot": 0,
        "tle_line1": "1 66052U 98067XR  25339.89797376  .00044373  00000+0  68981-3 0  9992",
        "tle_line2": "2 66052  51.6285 175.6042 0004196 157.7899 202.3273 15.53474220  7772"
      },
      "geometry": {
        "type": "Point",
        "coordinates": [
          103.30411841776964,
          -49.82708996447671
        ]
      }
    },
    {
      "type": "Feature",
      "properties": {
        "norad_id": 66174,
        "name": "HTV-X1",
        "group": "stations",
        "lat": -51.265769255722404,
        "lon": 92.84846374555545,
        "alt_km": 422.16556255351315,
        "timestamp": "2025-12-06T09:34:15.718718+00:00",
        "meta_object_name": "HTV-X1",
        "meta_object_id": "2025-241A",
        "meta_epoch": "2025-12-05T21:33:01.156320",
        "meta_mean_motion": 15.49346308,
        "meta_eccentricity": 0.00035522,
        "meta_inclination": 51.6298,
        "meta_ra_of_asc_node": 176.3533,
        "meta_arg_of_pericenter": 209.1564,
        "meta_mean_anomaly": 150.9226,
        "meta_ephemeris_type": 0,
        "meta_classification_type": "U",
        "meta_norad_cat_id": 66174,
        "meta_element_set_no": 999,
        "meta_rev_at_epoch": 51,
        "meta_bstar": 0.0002548829,
        "meta_mean_motion_dot": 0.00013789,
        "meta_mean_motion_ddot": 0,
        "tle_line1": "1 66174U 25241A   25339.89793005  .00013789  00000+0  25488-3 0  9998",
        "tle_line2": "2 66174  51.6298 176.3533 0003552 209.1564 150.9226 15.49346308   511"
      },
      "geometry": {
        "type": "Point",
        "coordinates": [
          92.84846374555545,
          -51.265769255722404
        ]
      }
    },
    {
      "type": "Feature",
      "properties": {
        "norad_id": 66515,
        "name": "SZ-21 MODULE",
        "group": "stations",
        "lat": -12.74948081684011,
        "lon": 39.87120848921749,
        "alt_km": 384.54448620295625,
        "timestamp": "2025-12-06T09:34:15.718728+00:00",
        "meta_object_name": "SZ-21 MODULE",
        "meta_object_id": "2025-246C",
        "meta_epoch": "2025-12-05T12:10:17.025600",
        "meta_mean_motion": 15.61972458,
        "meta_eccentricity": 0.000603,
        "meta_inclination": 41.4776,
        "meta_ra_of_asc_node": 60.1494,
        "meta_arg_of_pericenter": 219.3277,
        "meta_mean_anomaly": 140.7125,
        "meta_ephemeris_type": 0,
        "meta_classification_type": "U",
        "meta_norad_cat_id": 66515,
        "meta_element_set_no": 999,
        "meta_rev_at_epoch": 331,
        "meta_bstar": 0.00043081448,
        "meta_mean_motion_dot": 0.00038539,
        "meta_mean_motion_ddot": 0,
        "tle_line1": "1 66515U 25246C   25339.50714150  .00038539  00000+0  43081-3 0  9993",
        "tle_line2": "2 66515  41.4776  60.1494 0006030 219.3277 140.7125 15.61972458  3313"
      },
      "geometry": {
        "type": "Point",
        "coordinates": [
          39.87120848921749,
          -12.74948081684011
        ]
      }
    },
    {
      "type": "Feature",
      "properties": {
        "norad_id": 66645,
        "name": "SHENZHOU-22",
        "group": "stations",
        "lat": 20.865418474081974,
        "lon": -150.38009799942418,
        "alt_km": 394.03372354736075,
        "timestamp": "2025-12-06T09:34:15.718737+00:00",
        "meta_object_name": "SHENZHOU-22",
        "meta_object_id": "2025-272A",
        "meta_epoch": "2025-12-05T22:10:41.358720",
        "meta_mean_motion": 15.58760067,
        "meta_eccentricity": 0.00096689,
        "meta_inclination": 41.4683,
        "meta_ra_of_asc_node": 58.072,
        "meta_arg_of_pericenter": 337.6224,
        "meta_mean_anomaly": 22.4191,
        "meta_ephemeris_type": 0,
        "meta_classification_type": "U",
        "meta_norad_cat_id": 66645,
        "meta_element_set_no": 999,
        "meta_rev_at_epoch": 26299,
        "meta_bstar": 0.00039600638,
        "meta_mean_motion_dot": 0.00031271,
        "meta_mean_motion_ddot": 0,
        "tle_line1": "1 66645U 25272A   25339.92408980  .00031271  00000+0  39601-3 0  9992",
        "tle_line2": "2 66645  41.4683  58.0720 0009668 337.6224  22.4191 15.58760067262995"
      },
      "geometry": {
        "type": "Point",
        "coordinates": [
          -150.38009799942418,
          20.865418474081974
        ]
      }
    },
    {
      "type": "Feature",
      "properties": {
        "norad_id": 66646,
        "name": "CZ-2F R/B",
        "group": "stations",
        "lat": 41.31178450358135,
        "lon": 145.08709897743415,
        "alt_km": 202.85483363057847,
        "timestamp": "2025-12-06T09:34:15.718748+00:00",
        "meta_object_name": "CZ-2F R/B",
        "meta_object_id": "2025-272B",
        "meta_epoch": "2025-12-05T15:30:36.919296",
        "meta_mean_motion": 16.25262576,
        "meta_eccentricity": 0.00544848,
        "meta_inclination": 41.4567,
        "meta_ra_of_asc_node": 54.8075,
        "meta_arg_of_pericenter": 209.502,
        "meta_mean_anomaly": 150.2763,
        "meta_ephemeris_type": 0,
        "meta_classification_type": "U",
        "meta_norad_cat_id": 66646,
        "meta_element_set_no": 999,
        "meta_rev_at_epoch": 169,
        "meta_bstar": 0.00057718843,
        "meta_mean_motion_dot": 0.02719338,
        "meta_mean_motion_ddot": 7.738456e-06,
        "tle_line1": "1 66646U 25272B   25339.64626064  .02719338  77385-5  57719-3 0  9992",
        "tle_line2": "2 66646  41.4567  54.8075 0054484 209.5020 150.2763 16.25262576  1691"
      },
      "geometry": {
        "type": "Point",
        "coordinates": [
          145.08709897743415,
          41.31178450358135
        ]
      }
    },
    {
      "type": "Feature",
      "properties": {
        "norad_id": 66664,
        "name": "SOYUZ-MS 28",
        "group": "stations",
        "lat": -51.265768940230906,
        "lon": 92.8484678355735,
        "alt_km": 422.16556264331666,
        "timestamp": "2025-12-06T09:34:15.718758+00:00",
        "meta_object_name": "SOYUZ-MS 28",
        "meta_object_id": "2025-275A",
        "meta_epoch": "2025-12-05T21:33:01.156320",
        "meta_mean_motion": 15.49346308,
        "meta_eccentricity": 0.00035522,
        "meta_inclination": 51.6298,
        "meta_ra_of_asc_node": 176.3533,
        "meta_arg_of_pericenter": 209.1564,
        "meta_mean_anomaly": 150.9226,
        "meta_ephemeris_type": 0,
        "meta_classification_type": "U",
        "meta_norad_cat_id": 66664,
        "meta_element_set_no": 999,
        "meta_rev_at_epoch": 128,
        "meta_bstar": 0.0002548829,
        "meta_mean_motion_dot": 0.00013789,
        "meta_mean_motion_ddot": 0,
        "tle_line1": "1 66664U 25275A   25339.89793005  .00013789  00000+0  25488-3 0  9999",
        "tle_line2": "2 66664  51.6298 176.3533 0003552 209.1564 150.9226 15.49346308  1280"
      },
      "geometry": {
        "type": "Point",
        "coordinates": [
          92.8484678355735,
          -51.265768940230906
        ]
      }
    },
    {
      "type": "Feature",
      "properties": {
        "norad_id": 66906,
        "name": "1998-067XS",
        "group": "stations",
        "lat": -49.177465374514334,
        "lon": 107.33642092628537,
        "alt_km": 421.9323718326623,
        "timestamp": "2025-12-06T09:34:15.718771+00:00",
        "meta_object_name": "1998-067XS",
        "meta_object_id": "1998-067XS",
        "meta_epoch": "2025-12-05T23:03:45.207360",
        "meta_mean_motion": 15.50072979,
        "meta_eccentricity": 0.00042511,
        "meta_inclination": 51.6296,
        "meta_ra_of_asc_node": 176.0242,
        "meta_arg_of_pericenter": 173.878,
        "meta_mean_anomaly": 186.2262,
        "meta_ephemeris_type": 0,
        "meta_classification_type": "U",
        "meta_norad_cat_id": 66906,
        "meta_element_set_no": 999,
        "meta_rev_at_epoch": 56,
        "meta_bstar": 0.00063070606,
        "meta_mean_motion_dot": 0.00035803,
        "meta_mean_motion_ddot": 0,
        "tle_line1": "1 66906U 98067XS  25339.96093990  .00035803  00000+0  63071-3 0  9992",
        "tle_line2": "2 66906  51.6296 176.0242 0004251 173.8780 186.2262 15.50072979   569"
      },
      "geometry": {
        "type": "Point",
        "coordinates": [
          107.33642092628537,
          -49.177465374514334
        ]
      }
    }
  ]
}